0 MARECS A
1 13010U 81122A   13277.09777940 -.00000191  00000-0  10000-3 0  1305
2 13010 015.5172 006.0447 0121467 147.3447 213.4251 00.95040269 67275
0 MARECS A
1 13010U 81122A   13279.20206765 -.00000139  00000-0  10000-3 0  1315
2 13010 015.5183 006.0253 0121442 147.4174 213.3449 00.95039649 67293
0 MARECS A
1 13010U 81122A   13281.30637748 -.00000128  00000-0  10000-3 0  1327
2 13010 015.5196 006.0053 0121436 147.5098 213.2493 00.95039575 67313
0 MARECS A
1 13010U 81122A   13283.41068719 -.00000187  00000-0  10000-3 0  1333
2 13010 015.5205 005.9861 0121310 147.5663 213.1883 00.95040181 67337
0 MARECS A
1 13010U 81122A   13283.41070219  .00000000  00000-0  10000-3 0  1345
2 13010 015.5209 005.9864 0120759 148.0148 212.7308 00.95035586 67334
0 MARECS A
1 13010U 81122A   13285.51498032 -.00000244  00000-0  10000-3 0  1346
2 13010 015.5216 005.9665 0121285 147.6533 213.0954 00.95040585 67357
0 MARECS A
1 13010U 81122A   13289.72355048 -.00000167  00000-0  10000-3 0  1357
2 13010 015.5237 005.9273 0121277 147.7177 213.0103 00.95039275 67395
0 MARECS A
1 13010U 81122A   13290.77570998 -.00000169  00000-0  10000-3 0  1360
2 13010 015.5243 005.9178 0121179 147.9541 212.7651 00.95039311 67401
